CCSDS_OMM_VERS = 2.0
CREATION_DATE  = 
ORIGINATOR     = 

OBJECT_NAME    = UNKNOWN
OBJECT_ID      = 
CENTER_NAME    = EARTH
REF_FRAME      = TEME
TIME_SYSTEM    = UTC
MEAN_ELEMENT_THEORY = SGP/SGP4

EPOCH          = 2026-04-02T19:42:28.275840
MEAN_MOTION    = 0.99117123
ECCENTRICITY   = .0122019
INCLINATION    = 5.9117
RA_OF_ASC_NODE = 289.6672
ARG_OF_PERICENTER = 254.3786
MEAN_ANOMALY   = 302.6914

EPHEMERIS_TYPE = 0
CLASSIFICATION_TYPE = U
NORAD_CAT_ID   = 83903
ELEMENT_SET_NO = 999
REV_AT_EPOCH   = 4476
BSTAR          = 0
MEAN_MOTION_DOT = -.215E-5
MEAN_MOTION_DDOT = 0

CCSDS_OMM_VERS = 2.0
CREATION_DATE  = 
ORIGINATOR     = 

OBJECT_NAME    = UNKNOWN
OBJECT_ID      = 
CENTER_NAME    = EARTH
REF_FRAME      = TEME
TIME_SYSTEM    = UTC
MEAN_ELEMENT_THEORY = SGP/SGP4

EPOCH          = 2026-04-02T07:49:14.503584
MEAN_MOTION    = 1.02663717
ECCENTRICITY   = .0222965
INCLINATION    = 5.5355
RA_OF_ASC_NODE = 296.8157
ARG_OF_PERICENTER = 275.9536
MEAN_ANOMALY   = 18.2754

EPHEMERIS_TYPE = 0
CLASSIFICATION_TYPE = U
NORAD_CAT_ID   = 83934
ELEMENT_SET_NO = 999
REV_AT_EPOCH   = 4641
BSTAR          = 0
MEAN_MOTION_DOT = -.293E-5
MEAN_MOTION_DDOT = 0

CCSDS_OMM_VERS = 2.0
CREATION_DATE  = 
ORIGINATOR     = 

OBJECT_NAME    = UNKNOWN
OBJECT_ID      = 
CENTER_NAME    = EARTH
REF_FRAME      = TEME
TIME_SYSTEM    = UTC
MEAN_ELEMENT_THEORY = SGP/SGP4

EPOCH          = 2026-03-30T09:08:42.703584
MEAN_MOTION    = 2.16230878
ECCENTRICITY   = .6167335
INCLINATION    = 22.3944
RA_OF_ASC_NODE = 155.4727
ARG_OF_PERICENTER = 98.4583
MEAN_ANOMALY   = 331.2963

EPHEMERIS_TYPE = 0
CLASSIFICATION_TYPE = U
NORAD_CAT_ID   = 84006
ELEMENT_SET_NO = 999
REV_AT_EPOCH   = 8655
BSTAR          = 0
MEAN_MOTION_DOT = -.5E-7
MEAN_MOTION_DDOT = 0

CCSDS_OMM_VERS = 2.0
CREATION_DATE  = 
ORIGINATOR     = 

OBJECT_NAME    = UNKNOWN
OBJECT_ID      = 
CENTER_NAME    = EARTH
REF_FRAME      = TEME
TIME_SYSTEM    = UTC
MEAN_ELEMENT_THEORY = SGP/SGP4

EPOCH          = 2026-03-26T23:45:27.429120
MEAN_MOTION    = 3.11924316
ECCENTRICITY   = .6584629
INCLINATION    = 7.5543
RA_OF_ASC_NODE = 125.0345
ARG_OF_PERICENTER = 203.9091
MEAN_ANOMALY   = 101.2563

EPHEMERIS_TYPE = 0
CLASSIFICATION_TYPE = U
NORAD_CAT_ID   = 84177
ELEMENT_SET_NO = 999
REV_AT_EPOCH   = 13336
BSTAR          = .53429E-2
MEAN_MOTION_DOT = .4124E-4
MEAN_MOTION_DDOT = 0

CCSDS_OMM_VERS = 2.0
CREATION_DATE  = 
ORIGINATOR     = 

OBJECT_NAME    = UNKNOWN
OBJECT_ID      = 
CENTER_NAME    = EARTH
REF_FRAME      = TEME
TIME_SYSTEM    = UTC
MEAN_ELEMENT_THEORY = SGP/SGP4

EPOCH          = 2026-04-02T10:21:56.494368
MEAN_MOTION    = 8.13688500
ECCENTRICITY   = .3462312
INCLINATION    = 64.8815
RA_OF_ASC_NODE = 155.4725
ARG_OF_PERICENTER = 5.5565
MEAN_ANOMALY   = 357.5067

EPHEMERIS_TYPE = 0
CLASSIFICATION_TYPE = U
NORAD_CAT_ID   = 84188
ELEMENT_SET_NO = 999
REV_AT_EPOCH   = 5002
BSTAR          = .1425E+0
MEAN_MOTION_DOT = .291568E-2
MEAN_MOTION_DDOT = 0

CCSDS_OMM_VERS = 2.0
CREATION_DATE  = 
ORIGINATOR     = 

OBJECT_NAME    = UNKNOWN
OBJECT_ID      = 
CENTER_NAME    = EARTH
REF_FRAME      = TEME
TIME_SYSTEM    = UTC
MEAN_ELEMENT_THEORY = SGP/SGP4

EPOCH          = 2026-03-26T22:47:26.752416
MEAN_MOTION    = 2.59776346
ECCENTRICITY   = .6956391
INCLINATION    = 6.1026
RA_OF_ASC_NODE = 57.5144
ARG_OF_PERICENTER = 338.3085
MEAN_ANOMALY   = 2.7316

EPHEMERIS_TYPE = 0
CLASSIFICATION_TYPE = U
NORAD_CAT_ID   = 84192
ELEMENT_SET_NO = 999
REV_AT_EPOCH   = 11256
BSTAR          = .13663E-1
MEAN_MOTION_DOT = .4983E-4
MEAN_MOTION_DDOT = 0

CCSDS_OMM_VERS = 2.0
CREATION_DATE  = 
ORIGINATOR     = 

OBJECT_NAME    = UNKNOWN
OBJECT_ID      = 
CENTER_NAME    = EARTH
REF_FRAME      = TEME
TIME_SYSTEM    = UTC
MEAN_ELEMENT_THEORY = SGP/SGP4

EPOCH          = 2026-04-02T09:00:46.781280
MEAN_MOTION    = 3.24121102
ECCENTRICITY   = .6521636
INCLINATION    = 20.2994
RA_OF_ASC_NODE = 209.7963
ARG_OF_PERICENTER = 180.7298
MEAN_ANOMALY   = 177.4745

EPHEMERIS_TYPE = 0
CLASSIFICATION_TYPE = U
NORAD_CAT_ID   = 84232
ELEMENT_SET_NO = 999
REV_AT_EPOCH   = 10823
BSTAR          = .39259E-1
MEAN_MOTION_DOT = .64003E-3
MEAN_MOTION_DDOT = 0

CCSDS_OMM_VERS = 2.0
CREATION_DATE  = 
ORIGINATOR     = 

OBJECT_NAME    = UNKNOWN
OBJECT_ID      = 
CENTER_NAME    = EARTH
REF_FRAME      = TEME
TIME_SYSTEM    = UTC
MEAN_ELEMENT_THEORY = SGP/SGP4

EPOCH          = 2026-04-02T13:50:49.526304
MEAN_MOTION    = 2.62722267
ECCENTRICITY   = .6890726
INCLINATION    = 9.2167
RA_OF_ASC_NODE = 285.6034
ARG_OF_PERICENTER = 192.2578
MEAN_ANOMALY   = 133.0766

EPHEMERIS_TYPE = 0
CLASSIFICATION_TYPE = U
NORAD_CAT_ID   = 84236
ELEMENT_SET_NO = 999
REV_AT_EPOCH   = 11689
BSTAR          = .79451E-2
MEAN_MOTION_DOT = .1265E-4
MEAN_MOTION_DDOT = 0

CCSDS_OMM_VERS = 2.0
CREATION_DATE  = 
ORIGINATOR     = 

OBJECT_NAME    = UNKNOWN
OBJECT_ID      = 
CENTER_NAME    = EARTH
REF_FRAME      = TEME
TIME_SYSTEM    = UTC
MEAN_ELEMENT_THEORY = SGP/SGP4

EPOCH          = 2026-04-02T01:21:13.597632
MEAN_MOTION    = 6.22452462
ECCENTRICITY   = .4550454
INCLINATION    = 23.8395
RA_OF_ASC_NODE = 7.4812
ARG_OF_PERICENTER = 145.8453
MEAN_ANOMALY   = 254.2622

EPHEMERIS_TYPE = 0
CLASSIFICATION_TYPE = U
NORAD_CAT_ID   = 84292
ELEMENT_SET_NO = 999
REV_AT_EPOCH   = 23493
BSTAR          = .2165E-2
MEAN_MOTION_DOT = .3441E-4
MEAN_MOTION_DDOT = 0

CCSDS_OMM_VERS = 2.0
CREATION_DATE  = 
ORIGINATOR     = 

OBJECT_NAME    = UNKNOWN
OBJECT_ID      = 
CENTER_NAME    = EARTH
REF_FRAME      = TEME
TIME_SYSTEM    = UTC
MEAN_ELEMENT_THEORY = SGP/SGP4

EPOCH          = 2026-03-26T16:39:15.605568
MEAN_MOTION    = 12.67518606
ECCENTRICITY   = .0050727
INCLINATION    = 101.7219
RA_OF_ASC_NODE = 236.2012
ARG_OF_PERICENTER = 192.1916
MEAN_ANOMALY   = 180.3498

EPHEMERIS_TYPE = 0
CLASSIFICATION_TYPE = U
NORAD_CAT_ID   = 84406
ELEMENT_SET_NO = 999
REV_AT_EPOCH   = 6246
BSTAR          = .31186E-2
MEAN_MOTION_DOT = .555E-5
MEAN_MOTION_DDOT = 0

CCSDS_OMM_VERS = 2.0
CREATION_DATE  = 
ORIGINATOR     = 

OBJECT_NAME    = UNKNOWN
OBJECT_ID      = 
CENTER_NAME    = EARTH
REF_FRAME      = TEME
TIME_SYSTEM    = UTC
MEAN_ELEMENT_THEORY = SGP/SGP4

EPOCH          = 2026-04-02T05:11:50.502336
MEAN_MOTION    = 2.05801729
ECCENTRICITY   = .7218972
INCLINATION    = 19.4315
RA_OF_ASC_NODE = 289.9801
ARG_OF_PERICENTER = 121.2396
MEAN_ANOMALY   = 327.9039

EPHEMERIS_TYPE = 0
CLASSIFICATION_TYPE = U
NORAD_CAT_ID   = 84407
ELEMENT_SET_NO = 999
REV_AT_EPOCH   = 7814
BSTAR          = .5888E-2
MEAN_MOTION_DOT = -.42E-6
MEAN_MOTION_DDOT = 0

CCSDS_OMM_VERS = 2.0
CREATION_DATE  = 
ORIGINATOR     = 

OBJECT_NAME    = UNKNOWN
OBJECT_ID      = 
CENTER_NAME    = EARTH
REF_FRAME      = TEME
TIME_SYSTEM    = UTC
MEAN_ELEMENT_THEORY = SGP/SGP4

EPOCH          = 2026-03-29T06:10:01.763904
MEAN_MOTION    = 2.19858707
ECCENTRICITY   = .7120781
INCLINATION    = 18.0449
RA_OF_ASC_NODE = 122.6779
ARG_OF_PERICENTER = 87.8046
MEAN_ANOMALY   = 344.8145

EPHEMERIS_TYPE = 0
CLASSIFICATION_TYPE = U
NORAD_CAT_ID   = 84575
ELEMENT_SET_NO = 999
REV_AT_EPOCH   = 6780
BSTAR          = -.86336E-5
MEAN_MOTION_DOT = -.197E-5
MEAN_MOTION_DDOT = 0

