UNKNOWN                 
1 83903U          26092.82116060 -.00000215  00000+0  00000+0 0  9993
2 83903   5.9117 289.6672 0122019 254.3786 302.6914  0.99117123 44767
UNKNOWN                 
1 83934U          26092.32586231 -.00000293  00000+0  00000+0 0  9999
2 83934   5.5355 296.8157 0222965 275.9536  18.2754  1.02663717 46418
UNKNOWN                 
1 84006U          26089.38104981 -.00000005  00000+0  00000+0 0  9991
2 84006  22.3944 155.4727 6167335  98.4583 331.2963  2.16230878 86551
UNKNOWN                 
1 84177U          26085.98990080  .00004124  00000+0  53429-2 0  9996
2 84177   7.5543 125.0345 6584629 203.9091 101.2563  3.11924316133361
UNKNOWN                 
1 84188U          26092.43190387  .00291568  00000+0  14250+0 0  9994
2 84188  64.8815 155.4725 3462312   5.5565 357.5067  8.13688500 50028
UNKNOWN                 
1 84192U          26085.94961519  .00004983  00000+0  13663-1 0  9992
2 84192   6.1026  57.5144 6956391 338.3085   2.7316  2.59776346112569
UNKNOWN                 
1 84232U          26092.37554145  .00064003  00000+0  39259-1 0  9993
2 84232  20.2994 209.7963 6521636 180.7298 177.4745  3.24121102108232
UNKNOWN                 
1 84236U          26092.57696211  .00001265  00000+0  79451-2 0  9990
2 84236   9.2167 285.6034 6890726 192.2578 133.0766  2.62722267116897
UNKNOWN                 
1 84292U          26092.05640738  .00003441  00000+0  21650-2 0  9994
2 84292  23.8395   7.4812 4550454 145.8453 254.2622  6.22452462234933
UNKNOWN                 
1 84406U          26085.69393062  .00000555  00000+0  31186-2 0  9996
2 84406 101.7219 236.2012 0050727 192.1916 180.3498 12.67518606 62464
UNKNOWN                 
1 84407U          26092.21655674 -.00000042  00000+0  58880-2 0  9995
2 84407  19.4315 289.9801 7218972 121.2396 327.9039  2.05801729 78142
UNKNOWN                 
1 84575U          26088.25696486 -.00000197  00000+0 -86336-5 0  9998
2 84575  18.0449 122.6779 7120781  87.8046 344.8145  2.19858707 67807
